CTC2_L_00378001-01
1 17570U 22534MA  26070.40847222  .00000000  00000+0  00000-0 0  9999
2 17570  40.0000   0.0000 0000000   0.0000   0.0000 13.03091871    10
CTC2_L_00378001-02
1 17571U 23202IJ  26070.40847222  .00000000  00000+0  00000-0 0  9993
2 17571  40.0000   0.0000 0000000   0.0000  90.0000 13.03091871    10
CTC2_L_00378001-03
1 17572U 23627ZJ  26070.40847222  .00000000  00000+0  00000-0 0  9995
2 17572  40.0000   0.0000 0000000   0.0000 180.0000 13.03091871    11
CTC2_L_00378001-04
1 17573U 22961OS  26070.40847222  .00000000  00000+0  00000-0 0  9996
2 17573  40.0000   0.0000 0000000   0.0000 270.0000 13.03091871    12
CTC2_L_00378002-01
1 17574U 25591DM  26070.40847222  .00000000  00000+0  00000-0 0  9999
2 17574  40.0000  12.0000 0000000   0.0000  12.0000 13.03091871    10
CTC2_L_00378002-02
1 17575U 22058TD  26070.40847222  .00000000  00000+0  00000-0 0  9995
2 17575  40.0000  12.0000 0000000   0.0000 102.0000 13.03091871    11
CTC2_L_00378002-03
1 17576U 25499OJ  26070.40847222  .00000000  00000+0  00000-0 0  9998
2 17576  40.0000  12.0000 0000000   0.0000 192.0000 13.03091871    11
CTC2_L_00378002-04
1 17577U 25226EU  26070.40847222  .00000000  00000+0  00000-0 0  9997
2 17577  40.0000  12.0000 0000000   0.0000 282.0000 13.03091871    12
CTC2_L_00378003-01
1 17578U 24382NU  26070.40847222  .00000000  00000+0  00000-0 0  9990
2 17578  40.0000  24.0000 0000000   0.0000  24.0000 13.03091871    10
CTC2_L_00378003-02
1 17579U 25047FN  26070.40847222  .00000000  00000+0  00000-0 0  9990
2 17579  40.0000  24.0000 0000000   0.0000 114.0000 13.03091871    11
CTC2_L_00378003-03
1 17580U 24370RS  26070.40847222  .00000000  00000+0  00000-0 0  9990
2 17580  40.0000  24.0000 0000000   0.0000 204.0000 13.03091871    13
CTC2_L_00378003-04
1 17581U 23596E   26070.40847222  .00000000  00000+0  00000-0 0  9990
2 17581  40.0000  24.0000 0000000   0.0000 294.0000 13.03091871    13
CTC2_L_00378004-01
1 17582U 24058E   26070.40847222  .00000000  00000+0  00000-0 0  9995
2 17582  40.0000  36.0000 0000000   0.0000  36.0000 13.03091871    11
CTC2_L_00378004-02
1 17583U 23660XG  26070.40847222  .00000000  00000+0  00000-0 0  9994
2 17583  40.0000  36.0000 0000000   0.0000 126.0000 13.03091871    12
CTC2_L_00378004-03
1 17584U 23361UD  26070.40847222  .00000000  00000+0  00000-0 0  9993
2 17584  40.0000  36.0000 0000000   0.0000 216.0000 13.03091871    13
CTC2_L_00378004-04
1 17585U 22634BE  26070.40847222  .00000000  00000+0  00000-0 0  9996
2 17585  40.0000  36.0000 0000000   0.0000 306.0000 13.03091871    14
CTC2_L_00378005-01
1 17586U 25826ER  26070.40847222  .00000000  00000+0  00000-0 0  9993
2 17586  40.0000  48.0000 0000000   0.0000  48.0000 13.03091871    11
CTC2_L_00378005-02
1 17587U 23145FO  26070.40847222  .00000000  00000+0  00000-0 0  9996
2 17587  40.0000  48.0000 0000000   0.0000 138.0000 13.03091871    12
CTC2_L_00378005-03
1 17588U 25288QU  26070.40847222  .00000000  00000+0  00000-0 0  9997
2 17588  40.0000  48.0000 0000000   0.0000 228.0000 13.03091871    13
CTC2_L_00378005-04
1 17589U 24061RA  26070.40847222  .00000000  00000+0  00000-0 0  9996
2 17589  40.0000  48.0000 0000000   0.0000 318.0000 13.03091871    14
CTC2_L_00378006-01
1 17590U 26418SP  26070.40847222  .00000000  00000+0  00000-0 0  9996
2 17590  40.0000  60.0000 0000000   0.0000  60.0000 13.03091871    14
CTC2_L_00378006-02
1 17591U 26388QZ  26070.40847222  .00000000  00000+0  00000-0 0  9993
2 17591  40.0000  60.0000 0000000   0.0000 150.0000 13.03091871    15
CTC2_L_00378006-03
1 17592U 23324MB  26070.40847222  .00000000  00000+0  00000-0 0  9991
2 17592  40.0000  60.0000 0000000   0.0000 240.0000 13.03091871    16
CTC2_L_00378006-04
1 17593U 22362YQ  26070.40847222  .00000000  00000+0  00000-0 0  9993
2 17593  40.0000  60.0000 0000000   0.0000 330.0000 13.03091871    17
CTC2_L_00378007-01
1 17594U 25650OU  26070.40847222  .00000000  00000+0  00000-0 0  9997
2 17594  40.0000  72.0000 0000000   0.0000  72.0000 13.03091871    14
CTC2_L_00378007-02
1 17595U 23907HM  26070.40847222  .00000000  00000+0  00000-0 0  9991
2 17595  40.0000  72.0000 0000000   0.0000 162.0000 13.03091871    15
CTC2_L_00378007-03
1 17596U 26218II  26070.40847222  .00000000  00000+0  00000-0 0  9990
2 17596  40.0000  72.0000 0000000   0.0000 252.0000 13.03091871    16
CTC2_L_00378007-04
1 17597U 23101BG  26070.40847222  .00000000  00000+0  00000-0 0  9999
2 17597  40.0000  72.0000 0000000   0.0000 342.0000 13.03091871    17
CTC2_L_00378008-01
1 17598U 26938ZT  26070.40847222  .00000000  00000+0  00000-0 0  9991
2 17598  40.0000  84.0000 0000000   0.0000  84.0000 13.03091871    14
CTC2_L_00378008-02
1 17599U 22899JY  26070.40847222  .00000000  00000+0  00000-0 0  9994
2 17599  40.0000  84.0000 0000000   0.0000 174.0000 13.03091871    15
CTC2_L_00378008-03
1 17600U 22593J   26070.40847222  .00000000  00000+0  00000-0 0  9998
2 17600  40.0000  84.0000 0000000   0.0000 264.0000 13.03091871    18
CTC2_L_00378008-04
1 17601U 24531HD  26070.40847222  .00000000  00000+0  00000-0 0  9993
2 17601  40.0000  84.0000 0000000   0.0000 354.0000 13.03091871    19
CTC2_L_00378009-01
1 17602U 25488AG  26070.40847222  .00000000  00000+0  00000-0 0  9996
2 17602  40.0000  96.0000 0000000   0.0000  96.0000 13.03091871    16
CTC2_L_00378009-02
1 17603U 25975KZ  26070.40847222  .00000000  00000+0  00000-0 0  9998
2 17603  40.0000  96.0000 0000000   0.0000 186.0000 13.03091871    17
CTC2_L_00378009-03
1 17604U 23735XG  26070.40847222  .00000000  00000+0  00000-0 0  9991
2 17604  40.0000  96.0000 0000000   0.0000 276.0000 13.03091871    18
CTC2_L_00378009-04
1 17605U 24352MV  26070.40847222  .00000000  00000+0  00000-0 0  9998
2 17605  40.0000  96.0000 0000000   0.0000   6.0000 13.03091871    10
CTC2_L_00378010-01
1 17606U 23130IA  26070.40847222  .00000000  00000+0  00000-0 0  9992
2 17606  40.0000 108.0000 0000000   0.0000 108.0000 13.03091871    18
CTC2_L_00378010-02
1 17607U 26683PY  26070.40847222  .00000000  00000+0  00000-0 0  9999
2 17607  40.0000 108.0000 0000000   0.0000 198.0000 13.03091871    18
CTC2_L_00378010-03
1 17608U 22157AP  26070.40847222  .00000000  00000+0  00000-0 0  9992
2 17608  40.0000 108.0000 0000000   0.0000 288.0000 13.03091871    19
CTC2_L_00378010-04
1 17609U 22496QM  26070.40847222  .00000000  00000+0  00000-0 0  9999
2 17609  40.0000 108.0000 0000000   0.0000  18.0000 13.03091871    11
CTC2_L_00378011-01
1 17610U 24406HR  26070.40847222  .00000000  00000+0  00000-0 0  9994
2 17610  40.0000 120.0000 0000000   0.0000 120.0000 13.03091871    11
CTC2_L_00378011-02
1 17611U 26021BS  26070.40847222  .00000000  00000+0  00000-0 0  9990
2 17611  40.0000 120.0000 0000000   0.0000 210.0000 13.03091871    12
CTC2_L_00378011-03
1 17612U 24716BL  26070.40847222  .00000000  00000+0  00000-0 0  9990
2 17612  40.0000 120.0000 0000000   0.0000 300.0000 13.03091871    13
CTC2_L_00378011-04
1 17613U 23473LM  26070.40847222  .00000000  00000+0  00000-0 0  9990
2 17613  40.0000 120.0000 0000000   0.0000  30.0000 13.03091871    14
CTC2_L_00378012-01
1 17614U 26968AF  26070.40847222  .00000000  00000+0  00000-0 0  9993
2 17614  40.0000 132.0000 0000000   0.0000 132.0000 13.03091871    11
CTC2_L_00378012-02
1 17615U 26498VQ  26070.40847222  .00000000  00000+0  00000-0 0  9992
2 17615  40.0000 132.0000 0000000   0.0000 222.0000 13.03091871    12
CTC2_L_00378012-03
1 17616U 24424LT  26070.40847222  .00000000  00000+0  00000-0 0  9990
2 17616  40.0000 132.0000 0000000   0.0000 312.0000 13.03091871    13
CTC2_L_00378012-04
1 17617U 22243EV  26070.40847222  .00000000  00000+0  00000-0 0  9998
2 17617  40.0000 132.0000 0000000   0.0000  42.0000 13.03091871    14
CTC2_L_00378013-01
1 17618U 24040KJ  26070.40847222  .00000000  00000+0  00000-0 0  9996
2 17618  40.0000 144.0000 0000000   0.0000 144.0000 13.03091871    11
CTC2_L_00378013-02
1 17619U 22165ZP  26070.40847222  .00000000  00000+0  00000-0 0  9993
2 17619  40.0000 144.0000 0000000   0.0000 234.0000 13.03091871    12
CTC2_L_00378013-03
1 17620U 23448FM  26070.40847222  .00000000  00000+0  00000-0 0  9990
2 17620  40.0000 144.0000 0000000   0.0000 324.0000 13.03091871    14
CTC2_L_00378013-04
1 17621U 26420IQ  26070.40847222  .00000000  00000+0  00000-0 0  9994
2 17621  40.0000 144.0000 0000000   0.0000  54.0000 13.03091871    15
CTC2_L_00378014-01
1 17622U 22509QN  26070.40847222  .00000000  00000+0  00000-0 0  9999
2 17622  40.0000 156.0000 0000000   0.0000 156.0000 13.03091871    12
CTC2_L_00378014-02
1 17623U 25807HF  26070.40847222  .00000000  00000+0  00000-0 0  9994
2 17623  40.0000 156.0000 0000000   0.0000 246.0000 13.03091871    13
CTC2_L_00378014-03
1 17624U 25754AS  26070.40847222  .00000000  00000+0  00000-0 0  9996
2 17624  40.0000 156.0000 0000000   0.0000 336.0000 13.03091871    14
CTC2_L_00378014-04
1 17625U 26399QF  26070.40847222  .00000000  00000+0  00000-0 0  9993
2 17625  40.0000 156.0000 0000000   0.0000  66.0000 13.03091871    15
CTC2_L_00378015-01
1 17626U 24961NY  26070.40847222  .00000000  00000+0  00000-0 0  9997
2 17626  40.0000 168.0000 0000000   0.0000 168.0000 13.03091871    12
CTC2_L_00378015-02
1 17627U 24674SR  26070.40847222  .00000000  00000+0  00000-0 0  9999
2 17627  40.0000 168.0000 0000000   0.0000 258.0000 13.03091871    13
CTC2_L_00378015-03
1 17628U 23990LZ  26070.40847222  .00000000  00000+0  00000-0 0  9990
2 17628  40.0000 168.0000 0000000   0.0000 348.0000 13.03091871    14
CTC2_L_00378015-04
1 17629U 22901KY  26070.40847222  .00000000  00000+0  00000-0 0  9992
2 17629  40.0000 168.0000 0000000   0.0000  78.0000 13.03091871    15
CTC2_L_00378016-01
1 17630U 26828HA  26070.40847222  .00000000  00000+0  00000-0 0  9996
2 17630  40.0000 180.0000 0000000   0.0000 180.0000 13.03091871    15
CTC2_L_00378016-02
1 17631U 22702RY  26070.40847222  .00000000  00000+0  00000-0 0  9994
2 17631  40.0000 180.0000 0000000   0.0000 270.0000 13.03091871    16
